[
  { "name": "India", "code": "IN", "dial_code": "91", "flag": "https://flagcdn.com/w20/in.png" },
  { "name": "United States", "code": "US", "dial_code": "1", "flag": "https://flagcdn.com/w20/us.png" },
  { "name": "Australia", "code": "AU", "dial_code": "61", "flag": "https://flagcdn.com/w20/au.png" },
  { "name": "United Kingdom", "code": "GB", "dial_code": "44", "flag": "https://flagcdn.com/w20/gb.png" },
  { "name": "Canada", "code": "CA", "dial_code": "1", "flag": "https://flagcdn.com/w20/ca.png" },
  { "name": "Germany", "code": "DE", "dial_code": "49", "flag": "https://flagcdn.com/w20/de.png" },
  { "name": "France", "code": "FR", "dial_code": "33", "flag": "https://flagcdn.com/w20/fr.png" },
  { "name": "Italy", "code": "IT", "dial_code": "39", "flag": "https://flagcdn.com/w20/it.png" },
  { "name": "Spain", "code": "ES", "dial_code": "34", "flag": "https://flagcdn.com/w20/es.png" },
  { "name": "China", "code": "CN", "dial_code": "86", "flag": "https://flagcdn.com/w20/cn.png" },
  { "name": "Japan", "code": "JP", "dial_code": "81", "flag": "https://flagcdn.com/w20/jp.png" },
  { "name": "South Korea", "code": "KR", "dial_code": "82", "flag": "https://flagcdn.com/w20/kr.png" },
  { "name": "Singapore", "code": "SG", "dial_code": "65", "flag": "https://flagcdn.com/w20/sg.png" },
  { "name": "Malaysia", "code": "MY", "dial_code": "60", "flag": "https://flagcdn.com/w20/my.png" },
  { "name": "Indonesia", "code": "ID", "dial_code": "62", "flag": "https://flagcdn.com/w20/id.png" },
  { "name": "Thailand", "code": "TH", "dial_code": "66", "flag": "https://flagcdn.com/w20/th.png" },
  { "name": "Philippines", "code": "PH", "dial_code": "63", "flag": "https://flagcdn.com/w20/ph.png" },
  { "name": "Vietnam", "code": "VN", "dial_code": "84", "flag": "https://flagcdn.com/w20/vn.png" },
  { "name": "Nepal", "code": "NP", "dial_code": "977", "flag": "https://flagcdn.com/w20/np.png" },
  { "name": "Sri Lanka", "code": "LK", "dial_code": "94", "flag": "https://flagcdn.com/w20/lk.png" },
  { "name": "Bangladesh", "code": "BD", "dial_code": "880", "flag": "https://flagcdn.com/w20/bd.png" },
  { "name": "Pakistan", "code": "PK", "dial_code": "92", "flag": "https://flagcdn.com/w20/pk.png" },
  { "name": "United Arab Emirates", "code": "AE", "dial_code": "971", "flag": "https://flagcdn.com/w20/ae.png" },
  { "name": "Saudi Arabia", "code": "SA", "dial_code": "966", "flag": "https://flagcdn.com/w20/sa.png" },
  { "name": "Qatar", "code": "QA", "dial_code": "974", "flag": "https://flagcdn.com/w20/qa.png" },
  { "name": "Kuwait", "code": "KW", "dial_code": "965", "flag": "https://flagcdn.com/w20/kw.png" },
  { "name": "Oman", "code": "OM", "dial_code": "968", "flag": "https://flagcdn.com/w20/om.png" },
  { "name": "Bahrain", "code": "BH", "dial_code": "973", "flag": "https://flagcdn.com/w20/bh.png" },
  { "name": "South Africa", "code": "ZA", "dial_code": "27", "flag": "https://flagcdn.com/w20/za.png" },
  { "name": "Nigeria", "code": "NG", "dial_code": "234", "flag": "https://flagcdn.com/w20/ng.png" },
  { "name": "Egypt", "code": "EG", "dial_code": "20", "flag": "https://flagcdn.com/w20/eg.png" },
  { "name": "Turkey", "code": "TR", "dial_code": "90", "flag": "https://flagcdn.com/w20/tr.png" },
  { "name": "Russia", "code": "RU", "dial_code": "7", "flag": "https://flagcdn.com/w20/ru.png" },
  { "name": "Brazil", "code": "BR", "dial_code": "55", "flag": "https://flagcdn.com/w20/br.png" },
  { "name": "Argentina", "code": "AR", "dial_code": "54", "flag": "https://flagcdn.com/w20/ar.png" },
  { "name": "Mexico", "code": "MX", "dial_code": "52", "flag": "https://flagcdn.com/w20/mx.png" },
  { "name": "Chile", "code": "CL", "dial_code": "56", "flag": "https://flagcdn.com/w20/cl.png" },
  { "name": "Colombia", "code": "CO", "dial_code": "57", "flag": "https://flagcdn.com/w20/co.png" },
  { "name": "Peru", "code": "PE", "dial_code": "51", "flag": "https://flagcdn.com/w20/pe.png" },
  { "name": "New Zealand", "code": "NZ", "dial_code": "64", "flag": "https://flagcdn.com/w20/nz.png" },
  { "name": "Switzerland", "code": "CH", "dial_code": "41", "flag": "https://flagcdn.com/w20/ch.png" },
  { "name": "Netherlands", "code": "NL", "dial_code": "31", "flag": "https://flagcdn.com/w20/nl.png" },
  { "name": "Sweden", "code": "SE", "dial_code": "46", "flag": "https://flagcdn.com/w20/se.png" },
  { "name": "Norway", "code": "NO", "dial_code": "47", "flag": "https://flagcdn.com/w20/no.png" },
  { "name": "Denmark", "code": "DK", "dial_code": "45", "flag": "https://flagcdn.com/w20/dk.png" },
  { "name": "Finland", "code": "FI", "dial_code": "358", "flag": "https://flagcdn.com/w20/fi.png" },
  { "name": "Ireland", "code": "IE", "dial_code": "353", "flag": "https://flagcdn.com/w20/ie.png" },
  { "name": "Portugal", "code": "PT", "dial_code": "351", "flag": "https://flagcdn.com/w20/pt.png" },
  { "name": "Poland", "code": "PL", "dial_code": "48", "flag": "https://flagcdn.com/w20/pl.png" },
  { "name": "Greece", "code": "GR", "dial_code": "30", "flag": "https://flagcdn.com/w20/gr.png" },
  { "name": "Israel", "code": "IL", "dial_code": "972", "flag": "https://flagcdn.com/w20/il.png" }
]
